ONEWEB-0319             
1 49105U 21075AG  25248.48870399  .00000066  00000+0  13668-3 0  9991
2 49105  87.9031  62.5158 0002155  95.4730 264.6648 13.17649030196115
ONEWEB-0323             
1 49106U 21075AH  25248.44736942  .00000246  00000+0  64825-3 0  9994
2 49106  87.8887  47.2208 0002377 100.7830 259.3567 13.12441188197208
ONEWEB-0329             
1 49107U 21075AJ  25248.49713339  .00000115  00000+0  26264-3 0  9995
2 49107  87.9028  62.5181 0001921  95.3918 264.7432 13.17650888196098
ONEWEB-0330             
1 49108U 21075AK  25248.49797426  .00000107  00000+0  24267-3 0  9997
2 49108  87.9032  62.5212 0001698  98.7829 261.3495 13.17648090196137
ONEWEB-0292             
1 49186U 21083A   25248.41371154  .00000264  00000+0  68790-3 0  9993
2 49186  87.9019  16.8373 0001916  98.2673 261.8673 13.13470750193540
ONEWEB-0303             
1 49187U 21083B   25248.46363747  .00000049  00000+0  90474-4 0  9994
2 49187  87.9175  31.9940 0001914  96.2123 263.9227 13.18686973192456
ONEWEB-0306             
1 49188U 21083C   25248.45374121  .00000060  00000+0  12051-3 0  9999
2 49188  87.9176  31.9817 0001525  96.1925 263.9381 13.18686638192491
ONEWEB-0307             
1 49189U 21083D   25248.40776686  .00000099  00000+0  23599-3 0  9998
2 49189  87.9008  16.8367 0001531 106.8445 253.2852 13.13469421193547
